start=new Date('2022-09-14T00:00:00.000Z').valueOf();
sats=[{"OBJECT_TYPE":"PAYLOAD","FILE":"3573088","PERIOD":"95.439","LAUNCH_DATE":"2022-02-21","INCLINATION":"53.2171","CLASSIFICATION_TYPE":"U","MEAN_ANOMALY":"219.9216","RA_OF_ASC_NODE":"272.8145","RCS_SIZE":"LARGE","MEAN_ELEMENT_THEORY":"SGP4","SEMIMAJOR_AXIS":"6917.970","OBJECT_NAME":"STARLINK-3525","BSTAR":"0.00313210000000","REF_FRAME":"TEME","TIME_SYSTEM":"UTC","DECAY_DATE":null,"MEAN_MOTION":"15.08810578","PERIAPSIS":"538.488","ELEMENT_SET_NO":"999","ECCENTRICITY":"0.00019470","ARG_OF_PERICENTER":"47.2308","REV_AT_EPOCH":"130","COUNTRY_CODE":"US","MEAN_MOTION_DOT":"0.00049872","APOAPSIS":"541.182","NORAD_CAT_ID":"51733","SITE":"AFETR","TLE_LINE1":"1 51733U 22016V   22256.91667824  .00049872  00000-0  31321-2 0  9992","OBJECT_ID":"2022-016V","GP_ID":"212535763","EPHEMERIS_TYPE":"0","MEAN_MOTION_DDOT":"0.0000000000000","EPOCH":"2022-09-13T22:00:00.999936","CENTER_NAME":"EARTH","TLE_LINE2":"2 51733  53.2171 272.8145 0001947  47.2308 219.9216 15.08810578  1301"},{"MEAN_ANOMALY":"321.7523","CLASSIFICATION_TYPE":"U","RA_OF_ASC_NODE":"272.8184","PERIOD":"95.440","OBJECT_TYPE":"PAYLOAD","FILE":"3573088","INCLINATION":"53.2161","LAUNCH_DATE":"2022-02-21","MEAN_MOTION":"15.08809077","DECAY_DATE":null,"TIME_SYSTEM":"UTC","SEMIMAJOR_AXIS":"6917.975","OBJECT_NAME":"STARLINK-3450","BSTAR":"0.00336330000000","REF_FRAME":"TEME","REV_AT_EPOCH":"130","ELEMENT_SET_NO":"999","ECCENTRICITY":"0.00018420","ARG_OF_PERICENTER":"45.3939","PERIAPSIS":"538.566","RCS_SIZE":"LARGE","MEAN_ELEMENT_THEORY":"SGP4","TLE_LINE1":"1 51734U 22016W   22256.91667824  .00053601  00000-0  33633-2 0  9996","SITE":"AFETR","OBJECT_ID":"2022-016W","COUNTRY_CODE":"US","NORAD_CAT_ID":"51734","APOAPSIS":"541.114","MEAN_MOTION_DOT":"0.00053601","TLE_LINE2":"2 51734  53.2161 272.8184 0001842  45.3939 321.7523 15.08809077  1302","EPHEMERIS_TYPE":"0","GP_ID":"212536514","CENTER_NAME":"EARTH","MEAN_MOTION_DDOT":"0.0000000000000","EPOCH":"2022-09-13T22:00:00.999936"},{"MEAN_ELEMENT_THEORY":"SGP4","RCS_SIZE":"LARGE","PERIAPSIS":"538.791","REV_AT_EPOCH":"130","ELEMENT_SET_NO":"999","ARG_OF_PERICENTER":"52.1733","ECCENTRICITY":"0.00015570","TIME_SYSTEM":"UTC","DECAY_DATE":null,"BSTAR":"0.00337550000000","SEMIMAJOR_AXIS":"6918.003","REF_FRAME":"TEME","OBJECT_NAME":"STARLINK-3517","MEAN_MOTION":"15.08799884","LAUNCH_DATE":"2022-02-21","INCLINATION":"53.2156","OBJECT_TYPE":"PAYLOAD","FILE":"3573088","PERIOD":"95.440","RA_OF_ASC_NODE":"272.8269","CLASSIFICATION_TYPE":"U","MEAN_ANOMALY":"275.0127","CENTER_NAME":"EARTH","MEAN_MOTION_DDOT":"0.0000000000000","EPOCH":"2022-09-13T22:00:00.999936","GP_ID":"212536765","EPHEMERIS_TYPE":"0","TLE_LINE2":"2 51735  53.2156 272.8269 0001557  52.1733 275.0127 15.08799884  1307","MEAN_MOTION_DOT":"0.00053784","APOAPSIS":"540.945","NORAD_CAT_ID":"51735","COUNTRY_CODE":"US","OBJECT_ID":"2022-016X","SITE":"AFETR","TLE_LINE1":"1 51735U 22016X   22256.91667824  .00053784  00000-0  33755-2 0  9994"},{"TLE_LINE2":"2 51736  53.2150 272.8117 0001611  55.0757 352.1228 15.08799611  1300","GP_ID":"212537513","EPHEMERIS_TYPE":"0","CENTER_NAME":"EARTH","MEAN_MOTION_DDOT":"0.0000000000000","EPOCH":"2022-09-13T22:00:00.999936","TLE_LINE1":"1 51736U 22016Y   22256.91667824  .00050389  00000-0  31651-2 0  9996","SITE":"AFETR","OBJECT_ID":"2022-016Y","COUNTRY_CODE":"US","APOAPSIS":"540.983","MEAN_MOTION_DOT":"0.00050389","NORAD_CAT_ID":"51736","DECAY_DATE":null,"TIME_SYSTEM":"UTC","SEMIMAJOR_AXIS":"6918.004","BSTAR":"0.00316510000000","OBJECT_NAME":"STARLINK-3447","REF_FRAME":"TEME","MEAN_MOTION":"15.08799611","PERIAPSIS":"538.754","REV_AT_EPOCH":"130","ELEMENT_SET_NO":"999","ARG_OF_PERICENTER":"55.0757","ECCENTRICITY":"0.00016110","RCS_SIZE":"LARGE","MEAN_ELEMENT_THEORY":"SGP4","CLASSIFICATION_TYPE":"U","MEAN_ANOMALY":"352.1228","RA_OF_ASC_NODE":"272.8117","OBJECT_TYPE":"PAYLOAD","FILE":"3573088","PERIOD":"95.440","LAUNCH_DATE":"2022-02-21","INCLINATION":"53.2150"},{"MEAN_ANOMALY":"294.2115","CLASSIFICATION_TYPE":"U","RA_OF_ASC_NODE":"272.8144","PERIOD":"95.439","FILE":"3573088","OBJECT_TYPE":"PAYLOAD","INCLINATION":"53.2155","LAUNCH_DATE":"2022-02-21","MEAN_MOTION":"15.08810162","TIME_SYSTEM":"UTC","DECAY_DATE":null,"SEMIMAJOR_AXIS":"6917.972","BSTAR":"0.00338590000000","OBJECT_NAME":"STARLINK-3509","REF_FRAME":"TEME","REV_AT_EPOCH":"130","ELEMENT_SET_NO":"999","ARG_OF_PERICENTER":"52.9705","ECCENTRICITY":"0.00017610","PERIAPSIS":"538.618","RCS_SIZE":"LARGE","MEAN_ELEMENT_THEORY":"SGP4","SITE":"AFETR","TLE_LINE1":"1 51737U 22016Z   22256.91667824  .00053968  00000-0  33859-2 0  9995","OBJECT_ID":"2022-016Z","COUNTRY_CODE":"US","NORAD_CAT_ID":"51737","APOAPSIS":"541.055","MEAN_MOTION_DOT":"0.00053968","TLE_LINE2":"2 51737  53.2155 272.8144 0001761  52.9705 294.2115 15.08810162  1307","EPHEMERIS_TYPE":"0","GP_ID":"212536264","CENTER_NAME":"EARTH","EPOCH":"2022-09-13T22:00:00.999936","MEAN_MOTION_DDOT":"0.0000000000000"},{"TLE_LINE1":"1 51738U 22016AA  22256.91667824  .00049333  00000-0  30982-2 0  9991","SITE":"AFETR","OBJECT_ID":"2022-016AA","COUNTRY_CODE":"US","NORAD_CAT_ID":"51738","MEAN_MOTION_DOT":"0.00049333","APOAPSIS":"540.968","TLE_LINE2":"2 51738  53.2160 272.8195 0001663  45.7063  41.4806 15.08816421  1301","EPHEMERIS_TYPE":"0","GP_ID":"212536014","MEAN_MOTION_DDOT":"0.0000000000000","EPOCH":"2022-09-13T22:00:00.999936","CENTER_NAME":"EARTH","MEAN_ANOMALY":"41.4806","CLASSIFICATION_TYPE":"U","RA_OF_ASC_NODE":"272.8195","PERIOD":"95.439","FILE":"3573088","OBJECT_TYPE":"PAYLOAD","INCLINATION":"53.2160","LAUNCH_DATE":"2022-02-21","MEAN_MOTION":"15.08816421","SEMIMAJOR_AXIS":"6917.952","REF_FRAME":"TEME","BSTAR":"0.00309820000000","OBJECT_NAME":"STARLINK-3515","TIME_SYSTEM":"UTC","DECAY_DATE":null,"ARG_OF_PERICENTER":"45.7063","ELEMENT_SET_NO":"999","ECCENTRICITY":"0.00016630","REV_AT_EPOCH":"130","PERIAPSIS":"538.667","RCS_SIZE":"LARGE","MEAN_ELEMENT_THEORY":"SGP4"},{"PERIAPSIS":"538.751","REV_AT_EPOCH":"130","ARG_OF_PERICENTER":"50.2307","ELEMENT_SET_NO":"999","ECCENTRICITY":"0.00015710","TIME_SYSTEM":"UTC","DECAY_DATE":null,"OBJECT_NAME":"STARLINK-3516","SEMIMAJOR_AXIS":"6917.973","BSTAR":"0.00332890000000","REF_FRAME":"TEME","MEAN_MOTION":"15.08809760","MEAN_ELEMENT_THEORY":"SGP4","RCS_SIZE":"LARGE","RA_OF_ASC_NODE":"272.8200","CLASSIFICATION_TYPE":"U","MEAN_ANOMALY":"336.9694","LAUNCH_DATE":"2022-02-21","INCLINATION":"53.2164","FILE":"3573088","OBJECT_TYPE":"PAYLOAD","PERIOD":"95.439","TLE_LINE2":"2 51739  53.2164 272.8200 0001571  50.2307 336.9694 15.08809760  1308","CENTER_NAME":"EARTH","MEAN_MOTION_DDOT":"0.0000000000000","EPOCH":"2022-09-13T22:00:00.999936","GP_ID":"212537266","EPHEMERIS_TYPE":"0","OBJECT_ID":"2022-016AB","TLE_LINE1":"1 51739U 22016AB  22256.91667824  .00053046  00000-0  33289-2 0  9991","SITE":"AFETR","APOAPSIS":"540.925","MEAN_MOTION_DOT":"0.00053046","NORAD_CAT_ID":"51739","COUNTRY_CODE":"US"},{"EPHEMERIS_TYPE":"0","GP_ID":"212537013","CENTER_NAME":"EARTH","MEAN_MOTION_DDOT":"0.0000000000000","EPOCH":"2022-09-13T22:00:00.999936","TLE_LINE2":"2 51740  53.2154 272.8134 0001813  50.3195  76.8740 15.08806037  1306","COUNTRY_CODE":"US","NORAD_CAT_ID":"51740","MEAN_MOTION_DOT":"0.00046223","APOAPSIS":"541.103","SITE":"AFETR","TLE_LINE1":"1 51740U 22016AC  22256.91667824  .00046223  00000-0  29061-2 0  9995","OBJECT_ID":"2022-016AC","RCS_SIZE":"LARGE","MEAN_ELEMENT_THEORY":"SGP4","MEAN_MOTION":"15.08806037","TIME_SYSTEM":"UTC","DECAY_DATE":null,"SEMIMAJOR_AXIS":"6917.984","BSTAR":"0.00290610000000","REF_FRAME":"TEME","OBJECT_NAME":"STARLINK-3500","REV_AT_EPOCH":"130","ELEMENT_SET_NO":"999","ARG_OF_PERICENTER":"50.3195","ECCENTRICITY":"0.00018130","PERIAPSIS":"538.595","PERIOD":"95.440","OBJECT_TYPE":"PAYLOAD","FILE":"3573088","INCLINATION":"53.2154","LAUNCH_DATE":"2022-02-21","MEAN_ANOMALY":"76.8740","CLASSIFICATION_TYPE":"U","RA_OF_ASC_NODE":"272.8134"},{"COUNTRY_CODE":"US","NORAD_CAT_ID":"51741","APOAPSIS":"540.805","MEAN_MOTION_DOT":"0.00003307","TLE_LINE1":"1 51741U 22016AD  22256.91667824  .00003307  00000-0  22576-3 0  9997","SITE":"AFETR","OBJECT_ID":"2022-016AD","EPHEMERIS_TYPE":"0","GP_ID":"212535764","MEAN_MOTION_DDOT":"0.0000000000000","EPOCH":"2022-09-13T22:00:00.999936","CENTER_NAME":"EARTH","TLE_LINE2":"2 51741  53.2155 272.8156 0001523  58.2841   8.9072 15.08838176  1308","PERIOD":"95.438","FILE":"3573088","OBJECT_TYPE":"PAYLOAD","INCLINATION":"53.2155","LAUNCH_DATE":"2022-02-21","MEAN_ANOMALY":"8.9072","CLASSIFICATION_TYPE":"U","RA_OF_ASC_NODE":"272.8156","RCS_SIZE":"LARGE","MEAN_ELEMENT_THEORY":"SGP4","MEAN_MOTION":"15.08838176","SEMIMAJOR_AXIS":"6917.886","BSTAR":"0.00022576000000","REF_FRAME":"TEME","OBJECT_NAME":"STARLINK-3520","DECAY_DATE":null,"TIME_SYSTEM":"UTC","ELEMENT_SET_NO":"999","ARG_OF_PERICENTER":"58.2841","ECCENTRICITY":"0.00015230","REV_AT_EPOCH":"130","PERIAPSIS":"538.697"},{"RCS_SIZE":"LARGE","MEAN_ELEMENT_THEORY":"SGP4","MEAN_MOTION":"15.08847706","BSTAR":"-0.00026895000000","SEMIMAJOR_AXIS":"6917.857","REF_FRAME":"TEME","OBJECT_NAME":"STARLINK-3521","TIME_SYSTEM":"UTC","DECAY_DATE":null,"ECCENTRICITY":"0.00017800","ELEMENT_SET_NO":"999","ARG_OF_PERICENTER":"50.5451","REV_AT_EPOCH":"130","PERIAPSIS":"538.490","PERIOD":"95.437","OBJECT_TYPE":"PAYLOAD","FILE":"3573088","INCLINATION":"53.2146","LAUNCH_DATE":"2022-02-21","MEAN_ANOMALY":"96.5538","CLASSIFICATION_TYPE":"U","RA_OF_ASC_NODE":"272.8074","EPHEMERIS_TYPE":"0","GP_ID":"212536515","MEAN_MOTION_DDOT":"0.0000000000000","EPOCH":"2022-09-13T22:00:00.999936","CENTER_NAME":"EARTH","TLE_LINE2":"2 51742  53.2146 272.8074 0001780  50.5451  96.5538 15.08847706  1304","COUNTRY_CODE":"US","NORAD_CAT_ID":"51742","APOAPSIS":"540.953","MEAN_MOTION_DOT":"-0.00004567","SITE":"AFETR","TLE_LINE1":"1 51742U 22016AE  22256.91667824 -.00004567  00000-0 -26895-3 0  9997","OBJECT_ID":"2022-016AE"}];
